[{"OBJECT_NAME":"HORACIO","OBJECT_ID":"2024-043A","EPOCH":"2026-03-09T21:54:40.867200","MEAN_MOTION":14.98036627,"ECCENTRICITY":0.00104103,"INCLINATION":97.8349,"RA_OF_ASC_NODE":200.1753,"ARG_OF_PERICENTER":2.9871,"MEAN_ANOMALY":357.1411,"EPHEMERIS_TYPE":0,"CLASSIFICATION_TYPE":"U","NORAD_CAT_ID":59098,"ELEMENT_SET_NO":999,"REV_AT_EPOCH":10980,"BSTAR":0.00038157841,"MEAN_MOTION_DOT":4.455e-5,"MEAN_MOTION_DDOT":0},{"OBJECT_NAME":"STARLINK-32589","OBJECT_ID":"2024-225W","EPOCH":"2026-03-09T15:32:49.448256","MEAN_MOTION":14.98330304,"ECCENTRICITY":0.00031987,"INCLINATION":70.0022,"RA_OF_ASC_NODE":164.7684,"ARG_OF_PERICENTER":267.4193,"MEAN_ANOMALY":92.66,"EPHEMERIS_TYPE":0,"CLASSIFICATION_TYPE":"U","NORAD_CAT_ID":62183,"ELEMENT_SET_NO":999,"REV_AT_EPOCH":6986,"BSTAR":0.00038869315,"MEAN_MOTION_DOT":4.548e-5,"MEAN_MOTION_DDOT":0}]
